stk.v.4.3

BEGIN Ephemeris

NumberOfEphemerisPoints    10368
ScenarioEpoch     15 Oct 2006 23:59: 47.00000001
InterpolationMethod		Lagrange 
InterpolationOrder		5 
CentralBody				Earth 
CoordinateSystem     Fixed
CoordinateSystemEpoch   15 Oct 2006 23:59: 47.00000001
DistanceUnit			Kilometers 

EphemerisTimePosVel 

8910000.00000000   3867.14544600  -18783.33844500   18526.87695100  1.994162416 -1.202509093 -1.651210970
8910899.99999999   5562.84141900  -19857.26849700   16887.40332000  1.770601419 -1.176498742 -1.986958199
8911799.99999999   7049.34257700  -20887.23171200   14960.37979100  1.530768323 -1.104532102 -2.289297130
8912700.00000000   8316.05724900  -21831.39695200   12778.25811300  1.283712655 -0.985861433 -2.553023899
8913599.99999999   9360.60110500  -22648.06881100   10377.90509100  1.038565877 -0.821539111 -2.773545551
8914499.99999999  10188.71538400  -23297.30576400    7800.01498100  0.804196059 -0.614402054 -2.946962693
8915400.00000000  10813.87677800  -23742.49381000    5088.45120800  0.588869980 -0.368988309 -3.070143711
8916299.99999999  11256.61135400  -23951.81510800    2289.52573500  0.399935612 -0.091387847 -3.140788728
8917199.99999999  11543.53660900  -23899.55437200    -548.77383200  0.243537375  0.210967964 -3.157481528
8918100.00000000  11706.16632700  -23567.19062600   -3377.59781200  0.124375664  0.529571377 -3.119727729
8918999.99999999  11779.52284200  -22944.22941500   -6148.07554300  0.045520876  0.855148270 -3.027977523
8919899.99999999  11800.60959800  -22028.73989100   -8812.16950200  0.008290112  1.178002012 -2.883631680
8920800.00000000  11806.80331100  -20827.57200200  -11323.52688100  0.012192613  1.488378093 -2.689029744
8921699.99999999  11834.22930200  -19356.24156100  -13638.31224400  0.054947244  1.776835144 -2.447419732
8922599.99999999  11916.18524100  -17638.48407000  -15716.00453000  0.132572402  2.034607474 -2.162909195
8923500.00000000  12081.67752000  -15705.49171700  -17520.14171300  0.239545678  2.253944160 -1.840397973
8924399.99999999  12354.13066000  -13594.86110700  -19018.99704700  0.369027520  2.428410470 -1.485493593
8925299.99999999  12750.32368700  -11349.29158000  -20186.17188500  0.513140284  2.553138723 -1.104410767
8926200.00000000  13279.59847700   -9015.08466000  -21001.09162900  0.663291498  2.625017706 -0.703857024
8927099.99999999  13943.37400900   -6640.50391500  -21449.39342200  0.810528051  2.642812335 -0.290906942
8927999.99999999  14734.98783400   -4274.06064000  -21523.19659500  0.945906580  2.607208198  0.127132121
8928900.00000000  15639.87232600   -1962.79414800  -21221.24962600  1.060864443  2.520778918  0.542859620
8929799.99999999  16636.05920800     249.38419100  -20548.95031900  1.147575641  2.387877653  0.948923401
8930699.99999999  17694.99195200    2323.21675300  -19518.23895800  1.199276678  2.214457381  1.338159832
8931600.00000000  18782.61275300    4225.43447400  -18147.36724800  1.210548726  2.007827734  1.703729151
8932499.99999999  19860.67932900    5929.84809500  -16460.54879200  1.177544440  1.776358848  2.039242875
8933399.99999999  20888.25742800    7418.15372600  -14487.49955800  1.098150325  1.529144935  2.338880418
8934300.00000000  21823.32800500    8680.42279500  -12262.87917900  0.972078403  1.275641813  2.597492442
8935199.99999999  22624.44382000    9715.25972900   -9825.64598300  0.800884118  1.025293571  2.810688965
8936099.99999999  23252.36886200   10529.62451100   -7218.34015100  0.587910565  0.787163715  2.974910735
8937000.00000000  23671.63552800   11138.33088200   -4486.31054900  0.338162247  0.569585631  3.087482932
8937899.99999999  23851.95863600   11563.24385000   -1676.90134500  0.058114432  0.379846084  3.146650805
8938799.99999999  23769.45200100   11832.21178600    1161.38533600 -0.244533363  0.223913738  3.151597341
8939700.00000000  23407.60191000   11977.77825800    3979.73477500 -0.561149176  0.106222606  3.102443533
8940599.99999999  22757.96207100   12035.72654700    6729.85776500 -0.882493629  0.029517830  3.000232188
8941499.99999999  21820.54594100   12043.51532400    9364.80720100 -1.199065174 -0.005231418  2.846896519
8942400.00000000  20603.90426800   12038.66702700   11839.76009400 -1.501452145  0.001150192  2.645214984
8943299.99999999  19124.88770500   12057.17116600   14112.75335100 -1.780678374  0.046094910  2.398753956
8944199.99999999  17408.10600600   12131.96321700   16145.36307700 -2.028529729  0.125408265  2.111799851
8945100.00000000  15485.10640600   12291.53570800   17903.31866700 -2.237849961  0.233445702  1.789282317
8945999.99999999  13393.30335300   12558.73285600   19357.04431000 -2.402795658  0.363342170  1.436689999
8946899.99999999  11174.70050900   12949.77229600   20482.12187600 -2.519041715  0.507285729  1.059980292
8947800.00000000   8874.45267800   13473.52907300   21259.67034900 -2.583930608  0.656824909  0.665484328
8948699.99999999   6539.32053800   14131.10726500   21676.63803400 -2.596560733  0.803198617  0.259808334
8949599.99999999   4216.07435300   14915.71427400   21726.00473400 -2.557811145  0.937676808 -0.150267643
8950500.00000000   1949.90435400   15812.84203200   21406.89192900 -2.470302108  1.051899870 -0.557892740
8951399.99999999   -217.10500200   16800.74860500   20724.57980400 -2.338292984  1.138204802 -0.956249158
8952299.99999999  -2247.38190300   17851.22307300   19690.43069400 -2.167520970  1.189926675 -1.338656076
8953200.00000000  -4109.10429200   18930.60652800   18321.71933300 -1.964986163  1.201664635 -1.698672716
8954099.99999999  -5777.22203900   20001.03284600   16641.37106900 -1.738690215  1.169502749 -2.030199603
8954999.99999999  -7234.22630200   21021.84472900   14677.61017000 -1.497337489  1.091177405 -2.327576927
8955900.00000000  -8470.63688500   21951.13378400   12463.52135900 -1.250009040  0.966184604 -2.585678772
8956799.99999999  -9485.18818700   22747.34826000   10036.52891300 -1.005820833  0.795822354 -2.800001863
8957699.99999999 -10284.70510300   23370.90873700    7437.79895800 -0.773578675  0.583165846 -2.966747165
8958600.00000000 -10883.67158100   23785.77100500    4711.57212800 -0.561442316  0.332974879 -3.082892823
8959499.99999999 -11303.50582300   23960.87587700    1904.43515300 -0.376611691  0.051535980 -3.146256573
8960399.99999999 -11571.56772000   23871.42927900    -935.45832200 -0.225047524 -0.253556044 -3.155545892
8961300.00000000 -11719.93460400   23499.96105700   -3759.20588500 -0.111237736 -0.573669859 -3.110394142
8962199.99999999 -11783.99118000   22837.11882000   -6518.00011100 -0.038019571 -0.899452938 -3.011381088
8963099.99999999 -11800.88749900   21882.16257900   -9163.98325800 -0.006465382 -1.221179064 -2.860036509
8964000.00000000 -11807.92500900   20643.13708500  -11651.09721700 -0.015837757 -1.529114680 -2.658825890
8964899.99999999 -11840.93464600   19136.71137500  -13935.91226300 -0.063616932 -1.813889634 -2.411117570
8965799.99999999 -11932.71220800   17387.68827200  -15978.41785400 -0.145600437 -2.066857364 -2.121131273
8966700.00000000 -12111.57488200   15428.20005300  -17742.75885600 -0.256071889 -2.280429659 -1.793868436
8967599.99999999 -12400.09860300   13296.61962400  -19197.90124000 -0.388032767 -2.448371888 -1.435025353
8968499.99999999 -12814.08907100   11036.22857400  -20318.21243100 -0.533488197 -2.566046069 -1.050890670
8969400.00000000 -13361.83006700    8693.69399900  -21083.94311600 -0.683775233 -2.630591200 -0.648229318
8970299.99999999 -14043.64132800    6317.41433800  -21481.59944400 -0.829920150 -2.641032928 -0.234155435
8971199.99999999 -14851.76549700    3955.80028700  -21504.19696600 -0.963009819 -2.598317624  0.184002809
8972100.00000000 -15770.58978700    1655.55976800  -21151.39048800 -1.074561537 -2.505269270  0.598843264
8972999.99999999 -16777.19393100    -539.94407500  -20429.47692700 -1.156875714 -2.366470917  1.003031367
8973899.99999999 -17842.20221100   -2592.19606800  -19351.27136800 -1.203356536 -2.188075818  1.389439813
8974800.00000000 -18930.90459200   -4468.83350300  -17935.85951700 -1.208787230 -1.977556385  1.751282994
8975699.99999999 -20004.60080300   -6144.70069400  -16208.23269000 -1.169548577 -1.743401782  2.082243105
8976599.99999999 -21022.11218700   -7602.61303100  -14198.81413600 -1.083771956 -1.494777087  2.376585093
8977500.00000000 -21941.39950000   -8833.80236300  -11942.88783000 -0.951421076 -1.241158448  2.629258054
8978399.99999999 -22721.22109700   -9838.02890800   -9479.94285700 -0.774299780 -0.991959464  2.835981148
8979299.99999999 -23322.76492600  -10623.35872000   -6852.94799100 -0.555986416 -0.756164107  2.993312625
8980200.00000000 -23711.18967600  -11205.61928700   -4107.57208500 -0.301698409 -0.541980907  3.098701092
8981099.99999999 -23857.01492500  -11607.55858800   -1291.36646400 -0.018093445 -0.356531914  3.150518698
8981999.99999999 -23737.30708200  -11857.74434600    1547.07445800  0.286983880 -0.205588165  3.148076396
8982900.00000000 -23336.61675500  -11989.24980600    4358.95844800  0.604799135 -0.093361244  3.091621906
8983799.99999999 -22647.63362400  -12038.17990100    7096.13147200  0.926056624 -0.022357971  2.982321365
8984699.99999999 -21671.53632500  -12042.09682600    9711.89031500  1.241246350  0.006697314  2.822225948
8985600.00000000 -20418.02683600  -12038.40678000   12161.75895700  1.540995959 -0.005128803  2.614224948
8986499.99999999 -18905.05075200  -12062.77015300   14404.21725200  1.816414472 -0.055038742  2.361986911
8987399.99999999 -17158.21679800  -12147.59504700   16401.37178400  2.059415285 -0.138628875  2.069890439
8988300.00000000 -15209.93913900  -12320.67064800   18119.56049500  2.263007003 -0.250073830  1.742946297
8989199.99999999 -13098.33631300  -12603.99034100   19529.88380200  2.421542104 -0.382362632  1.386712284
8990099.99999999 -10865.92851000  -13012.80731100   20608.65638700  2.530915108 -0.527577536  1.007202276
END Ephemeris
